1 00000U 00000A   25079.37569444  .00000000  00000-0  00000-2 0    00
2 00000  60.0000   0.0000 0000001   0.0000   0.0000 14.81370965    03
